{"type": "FeatureCollection", "features": [ {"type": "Feature", "properties": {"norad_id": 40115, "name": "WORLDVIEW-3 (WV-3)", "group": "resource", "lat": 19.792471324475255, "lon": -127.3774836084906, "alt_km": 610.7648816486417, "timestamp": "2025-12-03T08:58:45.656234+00:00", "meta": {"OBJECT_NAME": "WORLDVIEW-3 (WV-3)", "OBJECT_ID": "2014-048A", "EPOCH": "2025-12-03T03:24:41.767776", "MEAN_MOTION": 14.85471259, "ECCENTRICITY": 0.0004077, "INCLINATION": 97.8626, "RA_OF_ASC_NODE": 49.5429, "ARG_OF_PERICENTER": 219.4958, "MEAN_ANOMALY": 140.596, "EPHEMERIS_TYPE": 0, "CLASSIFICATION_TYPE": "U", "NORAD_CAT_ID": 40115, "ELEMENT_SET_NO": 999, "REV_AT_EPOCH": 61281, "BSTAR": 0.00019419, "MEAN_MOTION_DOT": 1.622e-05, "MEAN_MOTION_DDOT": 0}, "tle": {"line1": "1 40115U 14048A   25337.14215009  .00001622  00000+0  19419-3 0  9997", "line2": "2 40115  97.8626  49.5429 0004077 219.4958 140.5960 14.85471259612819"}}, "geometry": {"type": "Point", "coordinates": [-127.3774836084906, 19.792471324475255]}}, {"type": "Feature", "properties": {"norad_id": 40118, "name": "GAOFEN-2", "group": "resource", "lat": 37.37888188264093, "lon": -137.27493880511184, "alt_km": 619.0769506839688, "timestamp": "2025-12-03T08:58:45.656245+00:00", "meta": {"OBJECT_NAME": "GAOFEN-2", "OBJECT_ID": "2014-049A", "EPOCH": "2025-12-03T05:05:45.724992", "MEAN_MOTION": 14.80580389, "ECCENTRICITY": 0.000819, "INCLINATION": 98.0399, "RA_OF_ASC_NODE": 36.3638, "ARG_OF_PERICENTER": 140.4114, "MEAN_ANOMALY": 219.7697, "EPHEMERIS_TYPE": 0, "CLASSIFICATION_TYPE": "U", "NORAD_CAT_ID": 40118, "ELEMENT_SET_NO": 999, "REV_AT_EPOCH": 61023, "BSTAR": 0.0001452, "MEAN_MOTION_DOT": 1.06e-05, "MEAN_MOTION_DDOT": 0}, "tle": {"line1": "1 40118U 14049A   25337.21233478  .00001060  00000+0  14520-3 0  9993", "line2": "2 40118  98.0399  36.3638 0008190 140.4114 219.7697 14.80580389610235"}}, "geometry": {"type": "Point", "coordinates": [-137.27493880511184, 37.37888188264093]}}, {"type": "Feature", "properties": {"norad_id": 40143, "name": "YAOGAN-21", "group": "resource", "lat": 78.65629148287155, "lon": -119.98973859778849, "alt_km": 481.8463863352299, "timestamp": "2025-12-03T08:58:45.656255+00:00", "meta": {"OBJECT_NAME": "YAOGAN-21", "OBJECT_ID": "2014-053A", "EPOCH": "2025-12-03T05:23:43.298016", "MEAN_MOTION": 15.23484398, "ECCENTRICITY": 0.0010236, "INCLINATION": 97.1775, "RA_OF_ASC_NODE": 20.9524, "ARG_OF_PERICENTER": 70.6252, "MEAN_ANOMALY": 289.6092, "EPHEMERIS_TYPE": 0, "CLASSIFICATION_TYPE": "U", "NORAD_CAT_ID": 40143, "ELEMENT_SET_NO": 999, "REV_AT_EPOCH": 62509, "BSTAR": 0.00048163, "MEAN_MOTION_DOT": 0.00011445, "MEAN_MOTION_DDOT": 0}, "tle": {"line1": "1 40143U 14053A   25337.22480669  .00011445  00000+0  48163-3 0  9991", "line2": "2 40143  97.1775  20.9524 0010236  70.6252 289.6092 15.23484398625091"}}, "geometry": {"type": "Point", "coordinates": [-119.98973859778849, 78.65629148287155]}}, {"type": "Feature", "properties": {"norad_id": 40275, "name": "YAOGAN-22", "group": "resource", "lat": 77.22264072327825, "lon": -2.5125155640686727, "alt_km": 1198.9464790809425, "timestamp": "2025-12-03T08:58:45.656265+00:00", "meta": {"OBJECT_NAME": "YAOGAN-22", "OBJECT_ID": "2014-063A", "EPOCH": "2025-12-03T03:00:44.400096", "MEAN_MOTION": 13.15522268, "ECCENTRICITY": 0.0005874, "INCLINATION": 100.7418, "RA_OF_ASC_NODE": 120.4095, "ARG_OF_PERICENTER": 271.4284, "MEAN_ANOMALY": 88.6154, "EPHEMERIS_TYPE": 0, "CLASSIFICATION_TYPE": "U", "NORAD_CAT_ID": 40275, "ELEMENT_SET_NO": 999, "REV_AT_EPOCH": 53403, "BSTAR": 0.00015883, "MEAN_MOTION_DOT": 1.3e-07, "MEAN_MOTION_DDOT": 0}, "tle": {"line1": "1 40275U 14063A   25337.12551389  .00000013  00000+0  15883-3 0  9997", "line2": "2 40275 100.7418 120.4095 0005874 271.4284  88.6154 13.15522268534036"}}, "geometry": {"type": "Point", "coordinates": [-2.5125155640686727, 77.22264072327825]}}, {"type": "Feature", "properties": {"norad_id": 40298, "name": "ASNARO", "group": "resource", "lat": -69.29779351774313, "lon": 73.57275795615162, "alt_km": 518.3522288497461, "timestamp": "2025-12-03T08:58:45.656276+00:00", "meta": {"OBJECT_NAME": "ASNARO", "OBJECT_ID": "2014-070A", "EPOCH": "2025-12-03T04:32:51.190368", "MEAN_MOTION": 15.19169507, "ECCENTRICITY": 0.0005117, "INCLINATION": 97.367, "RA_OF_ASC_NODE": 53.372, "ARG_OF_PERICENTER": 149.5378, "MEAN_ANOMALY": 210.6155, "EPHEMERIS_TYPE": 0, "CLASSIFICATION_TYPE": "U", "NORAD_CAT_ID": 40298, "ELEMENT_SET_NO": 999, "REV_AT_EPOCH": 61424, "BSTAR": 0.00066584, "MEAN_MOTION_DOT": 0.00013954, "MEAN_MOTION_DDOT": 0}, "tle": {"line1": "1 40298U 14070A   25337.18948137  .00013954  00000+0  66584-3 0  9999", "line2": "2 40298  97.3670  53.3720 0005117 149.5378 210.6155 15.19169507614249"}}, "geometry": {"type": "Point", "coordinates": [73.57275795615162, -69.29779351774313]}}, {"type": "Feature", "properties": {"norad_id": 40310, "name": "YAOGAN-24", "group": "resource", "lat": -80.37647236471614, "lon": 165.7911300476566, "alt_km": 651.964388920107, "timestamp": "2025-12-03T08:58:45.656286+00:00", "meta": {"OBJECT_NAME": "YAOGAN-24", "OBJECT_ID": "2014-072A", "EPOCH": "2025-12-03T04:29:00.678624", "MEAN_MOTION": 14.76143069, "ECCENTRICITY": 0.0014238, "INCLINATION": 98.1217, "RA_OF_ASC_NODE": 108.2297, "ARG_OF_PERICENTER": 167.6619, "MEAN_ANOMALY": 192.4941, "EPHEMERIS_TYPE": 0, "CLASSIFICATION_TYPE": "U", "NORAD_CAT_ID": 40310, "ELEMENT_SET_NO": 999, "REV_AT_EPOCH": 59480, "BSTAR": 0.00020649, "MEAN_MOTION_DOT": 1.376e-05, "MEAN_MOTION_DDOT": 0}, "tle": {"line1": "1 40310U 14072A   25337.18681341  .00001376  00000+0  20649-3 0  9994", "line2": "2 40310  98.1217 108.2297 0014238 167.6619 192.4941 14.76143069594808"}}, "geometry": {"type": "Point", "coordinates": [165.7911300476566, -80.37647236471614]}}, {"type": "Feature", "properties": {"norad_id": 40336, "name": "CBERS 4", "group": "resource", "lat": -55.284573184984254, "lon": 47.92298582271387, "alt_km": 781.3677808283337, "timestamp": "2025-12-03T08:58:45.656296+00:00", "meta": {"OBJECT_NAME": "CBERS 4", "OBJECT_ID": "2014-079A", "EPOCH": "2025-12-03T04:13:19.920864", "MEAN_MOTION": 14.35527941, "ECCENTRICITY": 0.0001446, "INCLINATION": 98.3323, "RA_OF_ASC_NODE": 35.5195, "ARG_OF_PERICENTER": 127.1305, "MEAN_ANOMALY": 233.0013, "EPHEMERIS_TYPE": 0, "CLASSIFICATION_TYPE": "U", "NORAD_CAT_ID": 40336, "ELEMENT_SET_NO": 999, "REV_AT_EPOCH": 57583, "BSTAR": 9.2988e-05, "MEAN_MOTION_DOT": 2.26e-06, "MEAN_MOTION_DDOT": 0}, "tle": {"line1": "1 40336U 14079A   25337.17592501  .00000226  00000+0  92988-4 0  9996", "line2": "2 40336  98.3323  35.5195 0001446 127.1305 233.0013 14.35527941575839"}}, "geometry": {"type": "Point", "coordinates": [47.92298582271387, -55.284573184984254]}}, {"type": "Feature", "properties": {"norad_id": 40362, "name": "YAOGAN-26", "group": "resource", "lat": 12.916880818618127, "lon": -23.243864496160963, "alt_km": 447.2630413347897, "timestamp": "2025-12-03T08:58:45.656308+00:00", "meta": {"OBJECT_NAME": "YAOGAN-26", "OBJECT_ID": "2014-088A", "EPOCH": "2025-12-03T04:14:27.225600", "MEAN_MOTION": 15.38773553, "ECCENTRICITY": 0.0007333, "INCLINATION": 97.0637, "RA_OF_ASC_NODE": 338.1955, "ARG_OF_PERICENTER": 55.6433, "MEAN_ANOMALY": 304.5505, "EPHEMERIS_TYPE": 0, "CLASSIFICATION_TYPE": "U", "NORAD_CAT_ID": 40362, "ELEMENT_SET_NO": 999, "REV_AT_EPOCH": 60747, "BSTAR": 0.000627, "MEAN_MOTION_DOT": 0.0002402, "MEAN_MOTION_DDOT": 0}, "tle": {"line1": "1 40362U 14088A   25337.17670400  .00024020  00000+0  62700-3 0  9996", "line2": "2 40362  97.0637 338.1955 0007333  55.6433 304.5505 15.38773553607478"}}, "geometry": {"type": "Point", "coordinates": [-23.243864496160963, 12.916880818618127]}}, {"type": "Feature", "properties": {"norad_id": 40376, "name": "SMAP", "group": "resource", "lat": -68.35351021625085, "lon": 3.342857932874842, "alt_km": 690.500235299306, "timestamp": "2025-12-03T08:58:45.656318+00:00", "meta": {"OBJECT_NAME": "SMAP", "OBJECT_ID": "2015-003A", "EPOCH": "2025-12-03T04:22:30.015840", "MEAN_MOTION": 14.63324704, "ECCENTRICITY": 0.0001212, "INCLINATION": 98.1291, "RA_OF_ASC_NODE": 342.044, "ARG_OF_PERICENTER": 87.0438, "MEAN_ANOMALY": 273.0903, "EPHEMERIS_TYPE": 0, "CLASSIFICATION_TYPE": "U", "NORAD_CAT_ID": 40376, "ELEMENT_SET_NO": 999, "REV_AT_EPOCH": 57895, "BSTAR": 0.0001603, "MEAN_MOTION_DOT": 7.81e-06, "MEAN_MOTION_DDOT": 0}, "tle": {"line1": "1 40376U 15003A   25337.18229185  .00000781  00000+0  16030-3 0  9993", "line2": "2 40376  98.1291 342.0440 0001212  87.0438 273.0903 14.63324704578957"}}, "geometry": {"type": "Point", "coordinates": [3.342857932874842, -68.35351021625085]}}, {"type": "Feature", "properties": {"norad_id": 40536, "name": "KOMPSAT-3A", "group": "resource", "lat": 22.668381613668114, "lon": 134.43768275067748, "alt_km": 433.2606734395049, "timestamp": "2025-12-03T08:58:45.656328+00:00", "meta": {"OBJECT_NAME": "KOMPSAT-3A", "OBJECT_ID": "2015-014A", "EPOCH": "2025-12-03T05:11:21.871104", "MEAN_MOTION": 15.43411804, "ECCENTRICITY": 0.0003745, "INCLINATION": 97.6772, "RA_OF_ASC_NODE": 311.0414, "ARG_OF_PERICENTER": 147.8054, "MEAN_ANOMALY": 212.3422, "EPHEMERIS_TYPE": 0, "CLASSIFICATION_TYPE": "U", "NORAD_CAT_ID": 40536, "ELEMENT_SET_NO": 999, "REV_AT_EPOCH": 59148, "BSTAR": 0.00057218, "MEAN_MOTION_DOT": 0.00025532, "MEAN_MOTION_DDOT": 0}, "tle": {"line1": "1 40536U 15014A   25337.21622536  .00025532  00000+0  57218-3 0  9998", "line2": "2 40536  97.6772 311.0414 0003745 147.8054 212.3422 15.43411804591484"}}, "geometry": {"type": "Point", "coordinates": [134.43768275067748, 22.668381613668114]}}]}